[{"OBJECT_NAME":"STARLINK-4624","OBJECT_ID":"2022-105AN","EPOCH":"2026-03-09T16:22:04.883808","MEAN_MOTION":15.01270773,"ECCENTRICITY":0.00031749,"INCLINATION":97.604,"RA_OF_ASC_NODE":310.272,"ARG_OF_PERICENTER":79.9673,"MEAN_ANOMALY":280.1909,"EPHEMERIS_TYPE":0,"CLASSIFICATION_TYPE":"U","NORAD_CAT_ID":53684,"ELEMENT_SET_NO":999,"REV_AT_EPOCH":19321,"BSTAR":0.00016885396,"MEAN_MOTION_DOT":2.112e-5,"MEAN_MOTION_DDOT":0},{"OBJECT_NAME":"FENGYUN 1C DEB","OBJECT_ID":"1999-025CGT","EPOCH":"2026-03-05T04:25:54.279264","MEAN_MOTION":14.0465685,"ECCENTRICITY":0.0439164,"INCLINATION":98.3742,"RA_OF_ASC_NODE":47.1093,"ARG_OF_PERICENTER":284.9374,"MEAN_ANOMALY":70.3578,"EPHEMERIS_TYPE":0,"CLASSIFICATION_TYPE":"U","NORAD_CAT_ID":31805,"ELEMENT_SET_NO":999,"REV_AT_EPOCH":63520,"BSTAR":0.0023074638,"MEAN_MOTION_DOT":8.792e-5,"MEAN_MOTION_DDOT":0}]
